[{"OBJECT_NAME":"STARLINK-3761","OBJECT_ID":"2022-041B","EPOCH":"2026-03-09T09:08:14.342784","MEAN_MOTION":15.08842697,"ECCENTRICITY":0.00018896,"INCLINATION":53.2167,"RA_OF_ASC_NODE":110.4603,"ARG_OF_PERICENTER":91.5589,"MEAN_ANOMALY":268.562,"EPHEMERIS_TYPE":0,"CLASSIFICATION_TYPE":"U","NORAD_CAT_ID":52262,"ELEMENT_SET_NO":999,"REV_AT_EPOCH":21431,"BSTAR":1.038593e-6,"MEAN_MOTION_DOT":-2.72e-6,"MEAN_MOTION_DDOT":0},{"OBJECT_NAME":"PEGASUS DEB","OBJECT_ID":"1994-029AFX","EPOCH":"2026-03-01T06:33:22.731264","MEAN_MOTION":14.85739755,"ECCENTRICITY":0.0106553,"INCLINATION":81.851,"RA_OF_ASC_NODE":257.2393,"ARG_OF_PERICENTER":271.4617,"MEAN_ANOMALY":87.4394,"EPHEMERIS_TYPE":0,"CLASSIFICATION_TYPE":"U","NORAD_CAT_ID":39924,"ELEMENT_SET_NO":999,"REV_AT_EPOCH":63095,"BSTAR":0.00041812,"MEAN_MOTION_DOT":4.045e-5,"MEAN_MOTION_DDOT":0}]
